NAVSTAR 43 (USA 132)    
1 24876U 97035A   21060.20882584  .00000028  00000-0  00000-0 0  9997
2 24876  55.4663 174.1340 0047206  56.8727 303.5728  2.00562555173168
NAVSTAR 47 (USA 150)    
1 26360U 00025A   21060.45617111  .00000012  00000-0  00000-0 0  9992
2 26360  53.6957  98.4791 0058060 166.4970 353.9325  2.00562898152484
NAVSTAR 48 (USA 151)    
1 26407U 00040A   21060.47934618  .00000008  00000-0  00000-0 0  9992
2 26407  55.8011 292.0137 0180961 282.5958 215.4757  2.00564372151163
NAVSTAR 51 (USA 166)    
1 27663U 03005A   21059.35584861  .00000016  00000-0  00000-0 0  9996
2 27663  55.8550 291.8531 0120645  36.7965 135.6277  2.00565736132503
NAVSTAR 52 (USA 168)    
1 27704U 03010A   21059.35055848 -.00000040  00000-0  00000-0 0  9994
2 27704  54.7950  42.5581 0244484 292.0028  90.2258  2.00558708131305
NAVSTAR 53 (USA 175)    
1 28129U 03058A   21059.40242473  .00000019  00000-0  00000-0 0  9991
2 28129  53.5051 101.1893 0072026 300.1872  59.1841  2.00572399125984
NAVSTAR 54 (USA 177)    
1 28190U 04009A   21059.40257830 -.00000067  00000-0  00000-0 0  9993
2 28190  56.2204 352.7046 0088359 102.5783 258.2367  2.00570035124133
NAVSTAR 56 (USA 180)    
1 28474U 04045A   21059.77387431 -.00000040  00000-0  00000-0 0  9990
2 28474  55.1325  42.5043 0205858 271.6603 273.2587  2.00569532119635
NAVSTAR 57 (USA 183)    
1 28874U 05038A   21059.61371464 -.00000065  00000-0  00000-0 0  9996
2 28874  56.3088 350.1033 0137233 269.7105 264.9517  2.00577704113039
NAVSTAR 58 (USA 190)    
1 29486U 06042A   21059.99308480  .00000051  00000-0  00000-0 0  9995
2 29486  54.7966 228.1288 0099257  13.0786 354.2861  2.00554740105637
NAVSTAR 59 (USA 192)    
1 29601U 06052A   21058.92690947  .00000020  00000-0  00000-0 0  9995
2 29601  55.8488 290.7936 0082140  66.9206 294.0111  2.00550480104599
NAVSTAR 60 (USA 196)    
1 32260U 07047A   21059.24341016  .00000019  00000-0  00000-0 0  9999
2 32260  53.2165 160.1938 0128710  54.9842 306.2314  2.00574752 98048
NAVSTAR 61 (USA 199)    
1 32384U 07062A   21059.32615113 -.00000065  00000-0  00000-0 0  9996
2 32384  56.4127 350.8184 0013589 127.3233  63.3508  2.00563492 96701
NAVSTAR 62 (USA 201)    
1 32711U 08012A   21060.14755954  .00000051  00000-0  00000-0 0  9990
2 32711  54.5473 227.1663 0146676 225.9469 132.8022  2.00571767 94981
NAVSTAR 64 (USA 206)    
1 35752U 09043A   21059.25893808  .00000024  00000-0  00000-0 0  9994
2 35752  54.7375 104.6723 0058070  48.9752  48.8324  2.00545695 84550
NAVSTAR 65 (USA 213)    
1 36585U 10022A   21060.21368635  .00000016  00000-0  00000-0 0  9992
2 36585  55.1224 286.5947 0096673  53.4766 122.5980  2.00564883 78807
NAVSTAR 66 (USA 232)    
1 37753U 11036A   21058.10034742 -.00000026  00000-0  00000-0 0  9992
2 37753  56.3484  47.2678 0102864  46.0343 131.5380  2.00562293 70447
NAVSTAR 67 (USA 239)    
1 38833U 12053A   21059.82915569  .00000046  00000-0  00000-0 0  9998
2 38833  53.5942 222.7781 0107945  41.0767 319.6908  2.00570016 60750
NAVSTAR 68 (USA 242)    
1 39166U 13023A   21056.20531127 -.00000068  00000-0  00000-0 0  9994
2 39166  55.9591 346.7920 0090070  32.0490 328.5074  2.00563468 57012
NAVSTAR 69 (USA 248)    
1 39533U 14008A   21058.69801640  .00000047  00000-0  00000-0 0  9997
2 39533  53.7016 228.2848 0049747 199.7200 160.0579  2.00555132 50882
NAVSTAR 70 (USA 251)    
1 39741U 14026A   21058.97506200 -.00000029  00000-0  00000-0 0  9994
2 39741  56.3193  46.7606 0025295 296.8310  62.9201  2.00558901 49726
NAVSTAR 71 (USA 256)    
1 40105U 14045A   21059.56005491  .00000023  00000-0  00000-0 0  9996
2 40105  54.6133 165.7229 0016883 106.2293 253.9632  2.00576652 47302
NAVSTAR 72 (USA 258)    
1 40294U 14068A   21057.94261752  .00000028  00000-0  00000-0 0  9999
2 40294  55.4848 106.7685 0031120  45.0125 315.3272  2.00566759 46375
NAVSTAR 73 (USA 260)    
1 40534U 15013A   21054.09066327  .00000034  00000-0  00000-0 0  9998
2 40534  54.0358 284.5302 0056888  13.4005 346.8161  2.00553384 42910
NAVSTAR 74 (USA 262)    
1 40730U 15033A   21060.23764527 -.00000065  00000-0  00000-0 0  9993
2 40730  55.4676 345.6854 0062447 357.0774   2.9108  2.00576815 41201
NAVSTAR 75 (USA 265)    
1 41019U 15062A   21060.28094372  .00000021  00000-0  00000-0 0  9996
2 41019  55.4802 106.5081 0066324 213.6456 146.0140  2.00563748 39047
NAVSTAR 76 (USA 266)    
1 41328U 16007A   21059.37510891  .00000022  00000-0  00000-0 0  9997
2 41328  54.8430 166.2832 0047987 223.1003 136.5282  2.00566822 37062
NAVSTAR 78 (USA 293)    
1 44506U 19056A   21060.21193265 -.00000034  00000-0  00000-0 0  9996
2 44506  55.4146  47.9329 0011987 184.8614 211.7591  2.00562578 11281
NAVSTAR 79 (USA 304)    
1 45854U 20041A   21059.74369884  .00000024  00000-0  00000-0 0  9995
2 45854  55.1918 105.2106 0009287 150.6073 209.5300  2.00566930  5230
